ONEWEB-0414             
1 50491U 21132Y   25026.77081678  .00000065  00000+0  13129-3 0  9996
2 50491  87.9065  76.1809 0001566  97.9103 262.2207 13.18684571154885
ONEWEB-0417             
1 50492U 21132Z   25026.62697526  .00000081  00000+0  17230-3 0  9991
2 50492  87.9071  76.2283 0001876  91.6838 268.4509 13.18685818154844
ONEWEB-0418             
1 50493U 21132AA  25026.63630338 -.00000315  00000+0 -83085-3 0  9994
2 50493  87.9066  76.2209 0001915  86.2254 273.9097 13.18684630154904
ONEWEB-0419             
1 50494U 21132AB  25026.65383490  .00000070  00000+0  14416-3 0  9999
2 50494  87.9063  76.2264 0002127  93.5443 266.5932 13.18684378154826
ONEWEB-0420             
1 50495U 21132AC  25026.39301893  .00000111  00000+0  24935-3 0  9991
2 50495  87.9065  76.2874 0001867 107.8970 252.2365 13.18685097154786
ONEWEB-0421             
1 50496U 21132AD  25026.69020386  .00000080  00000+0  17140-3 0  9995
2 50496  87.9071  76.2107 0001498  99.7968 260.3333 13.18685715154860
ONEWEB-0424             
1 50497U 21132AE  25026.64909420  .00000070  00000+0  14454-3 0  9990
2 50497  87.9066  76.2148 0002310  94.4934 265.6462 13.18684006154884
ONEWEB-0426             
1 50498U 21132AF  25026.68702750 -.00000084  00000+0 -24572-3 0  9991
2 50498  87.9060  76.2152 0001545  77.2845 282.8460 13.18684073154831
